ONEWEB-0584             
1 54651U 22166K   23280.41216298  .00000060  00000+0  11411-3 0  9992
2 54651  87.9182  79.8305 0001725 105.6137 254.5187 13.21821445 42029
ONEWEB-0585             
1 54652U 22166L   23279.90540336  .00000036  00000+0  54578-4 0  9993
2 54652  87.9184  79.9335 0001953  87.5565 272.5793 13.21826570 41499
ONEWEB-0586             
1 54653U 22166M   23280.44791535  .00000058  00000+0  10784-3 0  9998
2 54653  87.9160  79.8697 0001844 100.9867 259.1474 13.21822684 42038
ONEWEB-0587             
1 54654U 22166N   23280.00427060  .00001619  00000+0  38862-2 0  9990
2 54654  87.9175  79.9045 0001495  70.3789 289.7506 13.21841787 42128
ONEWEB-0589             
1 54655U 22166P   23279.91593329 -.00000018  00000+0 -76102-4 0  9996
2 54655  87.9187  79.9369 0001928 127.4174 232.7136 13.21826812 41515
ONEWEB-0590             
1 54656U 22166Q   23280.47104361  .00000265  00000+0  60998-3 0  9991
2 54656  87.9186  79.8319 0001660  85.7459 274.3865 13.21828733 42037
ONEWEB-0591             
1 54657U 22166R   23279.95375920 -.00000229  00000+0 -58609-3 0  9992
2 54657  87.9187  79.9336 0001618  97.9113 262.2205 13.21825870 41991
ONEWEB-0592             
1 54658U 22166S   23279.95588536  .00000075  00000+0  15064-3 0  9997
2 54658  87.9176  79.9160 0001557 100.6790 259.4520 13.21824608 41884
